KUIPER-00268            
1 67790U 26030AC  26055.22121463  .00024568  00000+0  71112-3 0  9998
2 67790  51.8856 284.0508 0001930  23.3042 336.8031 15.35450216  3029
KUIPER-00270            
1 67791U 26030AD  26055.23191405  .00024089  00000+0  72826-3 0  9994
2 67791  51.8822 284.1135 0009565  17.0402 343.0902 15.34052654  3022
KUIPER-00274            
1 67792U 26030AE  26055.24322791 -.00003068  00000+0 -84557-4 0  9991
2 67792  51.8829 284.1907 0017735  29.3345 330.8632 15.32279775  3024
KUIPER-00275            
1 67793U 26030AF  26055.22995786  .00025370  00000+0  75986-3 0  9993
2 67793  51.8851 284.1082 0008068  15.0874 345.0351 15.34329461  3028
KUIPER-00276            
1 67794U 26030AG  26055.50002314  .00069220  00000+0  22213-2 0  9997
2 67794  51.8824 282.9849 0018317  26.5982 297.2014 15.31522837  2764
KUIPER-00279            
1 67795U 26030AH  26055.09661267  .00029915  00000+0  88184-3 0  9997
2 67795  51.8813 284.7088 0006001  11.3715 348.7405 15.34755480  3000
CREW DRAGON 12          
1 67796U 26031A   26055.21810240  .00011823  00000+0  22802-3 0  9994
2 67796  51.6318 138.9491 0008427 128.0072 232.1679 15.48257925554212
STARLINK-36800          
1 67797U 26032A   26054.66670139 -.01862359  94321-3 -60359-2 0  9997
2 67797  97.2870 240.3960 0001284  80.0984 214.9156 15.90904989  2520
STARLINK-36798          
1 67798U 26032B   26054.66670139 -.01865731  94824-3 -59881-2 0  9991
2 67798  97.2865 240.3974 0001244  75.9154 222.8269 15.91097752  2466
STARLINK-36804          
1 67799U 26032C   26054.66670139 -.01853662  93869-3 -58889-2 0  9997
2 67799  97.2863 240.3994 0001357  75.3637 227.4376 15.91296785  2469
STARLINK-36354          
1 67800U 26032D   26054.66670139 -.01853319  93987-3 -58406-2 0  9995
2 67800  97.2866 240.4012 0001230  78.0847 227.8964 15.91455237  2523
STARLINK-36773          
1 67801U 26032E   26054.66670139 -.01845584  93410-3 -57675-2 0  9999
2 67801  97.2859 240.4020 0001305  74.0978 235.2493 15.91618581  2465
