CCSDS_OMM_VERS = 2.0
CREATION_DATE  = 
ORIGINATOR     = 

OBJECT_NAME    = KUIPER-00268
OBJECT_ID      = 2026-030AC
CENTER_NAME    = EARTH
REF_FRAME      = TEME
TIME_SYSTEM    = UTC
MEAN_ELEMENT_THEORY = SGP/SGP4

EPOCH          = 2026-02-24T05:18:32.944032
MEAN_MOTION    = 15.35450216
ECCENTRICITY   = .000193
INCLINATION    = 51.8856
RA_OF_ASC_NODE = 284.0508
ARG_OF_PERICENTER = 23.3042
MEAN_ANOMALY   = 336.8031

EPHEMERIS_TYPE = 0
CLASSIFICATION_TYPE = U
NORAD_CAT_ID   = 67790
ELEMENT_SET_NO = 999
REV_AT_EPOCH   = 302
BSTAR          = .71112E-3
MEAN_MOTION_DOT = .24568E-3
MEAN_MOTION_DDOT = 0

CCSDS_OMM_VERS = 2.0
CREATION_DATE  = 
ORIGINATOR     = 

OBJECT_NAME    = KUIPER-00270
OBJECT_ID      = 2026-030AD
CENTER_NAME    = EARTH
REF_FRAME      = TEME
TIME_SYSTEM    = UTC
MEAN_ELEMENT_THEORY = SGP/SGP4

EPOCH          = 2026-02-24T05:33:57.373920
MEAN_MOTION    = 15.34052654
ECCENTRICITY   = .0009565
INCLINATION    = 51.8822
RA_OF_ASC_NODE = 284.1135
ARG_OF_PERICENTER = 17.0402
MEAN_ANOMALY   = 343.0902

EPHEMERIS_TYPE = 0
CLASSIFICATION_TYPE = U
NORAD_CAT_ID   = 67791
ELEMENT_SET_NO = 999
REV_AT_EPOCH   = 302
BSTAR          = .72826E-3
MEAN_MOTION_DOT = .24089E-3
MEAN_MOTION_DDOT = 0

CCSDS_OMM_VERS = 2.0
CREATION_DATE  = 
ORIGINATOR     = 

OBJECT_NAME    = KUIPER-00274
OBJECT_ID      = 2026-030AE
CENTER_NAME    = EARTH
REF_FRAME      = TEME
TIME_SYSTEM    = UTC
MEAN_ELEMENT_THEORY = SGP/SGP4

EPOCH          = 2026-02-24T05:50:14.891424
MEAN_MOTION    = 15.32279775
ECCENTRICITY   = .0017735
INCLINATION    = 51.8829
RA_OF_ASC_NODE = 284.1907
ARG_OF_PERICENTER = 29.3345
MEAN_ANOMALY   = 330.8632

EPHEMERIS_TYPE = 0
CLASSIFICATION_TYPE = U
NORAD_CAT_ID   = 67792
ELEMENT_SET_NO = 999
REV_AT_EPOCH   = 302
BSTAR          = -.84557E-4
MEAN_MOTION_DOT = -.3068E-4
MEAN_MOTION_DDOT = 0

CCSDS_OMM_VERS = 2.0
CREATION_DATE  = 
ORIGINATOR     = 

OBJECT_NAME    = KUIPER-00275
OBJECT_ID      = 2026-030AF
CENTER_NAME    = EARTH
REF_FRAME      = TEME
TIME_SYSTEM    = UTC
MEAN_ELEMENT_THEORY = SGP/SGP4

EPOCH          = 2026-02-24T05:31:08.359104
MEAN_MOTION    = 15.34329461
ECCENTRICITY   = .0008068
INCLINATION    = 51.8851
RA_OF_ASC_NODE = 284.1082
ARG_OF_PERICENTER = 15.0874
MEAN_ANOMALY   = 345.0351

EPHEMERIS_TYPE = 0
CLASSIFICATION_TYPE = U
NORAD_CAT_ID   = 67793
ELEMENT_SET_NO = 999
REV_AT_EPOCH   = 302
BSTAR          = .75986E-3
MEAN_MOTION_DOT = .2537E-3
MEAN_MOTION_DDOT = 0

CCSDS_OMM_VERS = 2.0
CREATION_DATE  = 
ORIGINATOR     = 

OBJECT_NAME    = KUIPER-00276
OBJECT_ID      = 2026-030AG
CENTER_NAME    = EARTH
REF_FRAME      = TEME
TIME_SYSTEM    = UTC
MEAN_ELEMENT_THEORY = SGP/SGP4

EPOCH          = 2026-02-24T12:00:01.999296
MEAN_MOTION    = 15.31522837
ECCENTRICITY   = .0018317
INCLINATION    = 51.8824
RA_OF_ASC_NODE = 282.9849
ARG_OF_PERICENTER = 26.5982
MEAN_ANOMALY   = 297.2014

EPHEMERIS_TYPE = 0
CLASSIFICATION_TYPE = U
NORAD_CAT_ID   = 67794
ELEMENT_SET_NO = 999
REV_AT_EPOCH   = 276
BSTAR          = .22213E-2
MEAN_MOTION_DOT = .6922E-3
MEAN_MOTION_DDOT = 0

CCSDS_OMM_VERS = 2.0
CREATION_DATE  = 
ORIGINATOR     = 

OBJECT_NAME    = KUIPER-00279
OBJECT_ID      = 2026-030AH
CENTER_NAME    = EARTH
REF_FRAME      = TEME
TIME_SYSTEM    = UTC
MEAN_ELEMENT_THEORY = SGP/SGP4

EPOCH          = 2026-02-24T02:19:07.334688
MEAN_MOTION    = 15.34755480
ECCENTRICITY   = .00060014
INCLINATION    = 51.8813
RA_OF_ASC_NODE = 284.7088
ARG_OF_PERICENTER = 11.3715
MEAN_ANOMALY   = 348.7405

EPHEMERIS_TYPE = 0
CLASSIFICATION_TYPE = U
NORAD_CAT_ID   = 67795
ELEMENT_SET_NO = 999
REV_AT_EPOCH   = 300
BSTAR          = .88183593E-3
MEAN_MOTION_DOT = .29915E-3
MEAN_MOTION_DDOT = 0

CCSDS_OMM_VERS = 2.0
CREATION_DATE  = 
ORIGINATOR     = 

OBJECT_NAME    = CREW DRAGON 12
OBJECT_ID      = 2026-031A
CENTER_NAME    = EARTH
REF_FRAME      = TEME
TIME_SYSTEM    = UTC
MEAN_ELEMENT_THEORY = SGP/SGP4

EPOCH          = 2026-02-24T05:14:04.047360
MEAN_MOTION    = 15.48257925
ECCENTRICITY   = .00084272
INCLINATION    = 51.6318
RA_OF_ASC_NODE = 138.9491
ARG_OF_PERICENTER = 128.0072
MEAN_ANOMALY   = 232.1679

EPHEMERIS_TYPE = 0
CLASSIFICATION_TYPE = U
NORAD_CAT_ID   = 67796
ELEMENT_SET_NO = 999
REV_AT_EPOCH   = 55421
BSTAR          = .22801862E-3
MEAN_MOTION_DOT = .11823E-3
MEAN_MOTION_DDOT = 0

CCSDS_OMM_VERS = 2.0
CREATION_DATE  = 
ORIGINATOR     = 

OBJECT_NAME    = STARLINK-36800
OBJECT_ID      = 2026-032A
CENTER_NAME    = EARTH
REF_FRAME      = TEME
TIME_SYSTEM    = UTC
MEAN_ELEMENT_THEORY = SGP/SGP4

EPOCH          = 2026-02-23T16:00:03.000096
MEAN_MOTION    = 15.90904989
ECCENTRICITY   = .0001284
INCLINATION    = 97.2870
RA_OF_ASC_NODE = 240.3960
ARG_OF_PERICENTER = 80.0984
MEAN_ANOMALY   = 214.9156

EPHEMERIS_TYPE = 0
CLASSIFICATION_TYPE = U
NORAD_CAT_ID   = 67797
ELEMENT_SET_NO = 999
REV_AT_EPOCH   = 252
BSTAR          = -.60359E-2
MEAN_MOTION_DOT = -.1862359E-1
MEAN_MOTION_DDOT = .94321E-3

CCSDS_OMM_VERS = 2.0
CREATION_DATE  = 
ORIGINATOR     = 

OBJECT_NAME    = STARLINK-36798
OBJECT_ID      = 2026-032B
CENTER_NAME    = EARTH
REF_FRAME      = TEME
TIME_SYSTEM    = UTC
MEAN_ELEMENT_THEORY = SGP/SGP4

EPOCH          = 2026-02-23T16:00:03.000096
MEAN_MOTION    = 15.91097752
ECCENTRICITY   = .0001244
INCLINATION    = 97.2865
RA_OF_ASC_NODE = 240.3974
ARG_OF_PERICENTER = 75.9154
MEAN_ANOMALY   = 222.8269

EPHEMERIS_TYPE = 0
CLASSIFICATION_TYPE = U
NORAD_CAT_ID   = 67798
ELEMENT_SET_NO = 999
REV_AT_EPOCH   = 246
BSTAR          = -.59881E-2
MEAN_MOTION_DOT = -.1865731E-1
MEAN_MOTION_DDOT = .94824E-3

CCSDS_OMM_VERS = 2.0
CREATION_DATE  = 
ORIGINATOR     = 

OBJECT_NAME    = STARLINK-36804
OBJECT_ID      = 2026-032C
CENTER_NAME    = EARTH
REF_FRAME      = TEME
TIME_SYSTEM    = UTC
MEAN_ELEMENT_THEORY = SGP/SGP4

EPOCH          = 2026-02-23T16:00:03.000096
MEAN_MOTION    = 15.91296785
ECCENTRICITY   = .0001357
INCLINATION    = 97.2863
RA_OF_ASC_NODE = 240.3994
ARG_OF_PERICENTER = 75.3637
MEAN_ANOMALY   = 227.4376

EPHEMERIS_TYPE = 0
CLASSIFICATION_TYPE = U
NORAD_CAT_ID   = 67799
ELEMENT_SET_NO = 999
REV_AT_EPOCH   = 246
BSTAR          = -.58889E-2
MEAN_MOTION_DOT = -.1853662E-1
MEAN_MOTION_DDOT = .93869E-3

CCSDS_OMM_VERS = 2.0
CREATION_DATE  = 
ORIGINATOR     = 

OBJECT_NAME    = STARLINK-36354
OBJECT_ID      = 2026-032D
CENTER_NAME    = EARTH
REF_FRAME      = TEME
TIME_SYSTEM    = UTC
MEAN_ELEMENT_THEORY = SGP/SGP4

EPOCH          = 2026-02-23T16:00:03.000096
MEAN_MOTION    = 15.91455237
ECCENTRICITY   = .000123
INCLINATION    = 97.2866
RA_OF_ASC_NODE = 240.4012
ARG_OF_PERICENTER = 78.0847
MEAN_ANOMALY   = 227.8964

EPHEMERIS_TYPE = 0
CLASSIFICATION_TYPE = U
NORAD_CAT_ID   = 67800
ELEMENT_SET_NO = 999
REV_AT_EPOCH   = 252
BSTAR          = -.58406E-2
MEAN_MOTION_DOT = -.1853319E-1
MEAN_MOTION_DDOT = .93987E-3

CCSDS_OMM_VERS = 2.0
CREATION_DATE  = 
ORIGINATOR     = 

OBJECT_NAME    = STARLINK-36773
OBJECT_ID      = 2026-032E
CENTER_NAME    = EARTH
REF_FRAME      = TEME
TIME_SYSTEM    = UTC
MEAN_ELEMENT_THEORY = SGP/SGP4

EPOCH          = 2026-02-23T16:00:03.000096
MEAN_MOTION    = 15.91618581
ECCENTRICITY   = .0001305
INCLINATION    = 97.2859
RA_OF_ASC_NODE = 240.4020
ARG_OF_PERICENTER = 74.0978
MEAN_ANOMALY   = 235.2493

EPHEMERIS_TYPE = 0
CLASSIFICATION_TYPE = U
NORAD_CAT_ID   = 67801
ELEMENT_SET_NO = 999
REV_AT_EPOCH   = 246
BSTAR          = -.57675E-2
MEAN_MOTION_DOT = -.1845584E-1
MEAN_MOTION_DDOT = .9341E-3

